*******************************************************************************
JPL/HORIZONS                702 Alauda (A910 OA)           2020-Jun-22 09:25:47
Rec #:     702 (+COV) Soln.date: 2020-Feb-22_15:34:35   # obs: 3028 (1910-2020)
 
IAU76/J2000 helio. ecliptic osc. elements (au, days, deg., period=Julian yrs):
 
  EPOCH=  2454554.5 ! 2008-Mar-29.00 (TDB)         Residual RMS= .2525
   EC= .02185236454317644  QR= 3.121612793812686   TP= 2454129.8532112367
   OM= 289.9677299015053   W=  352.4449943450499   IN= 20.61336819702069
   A= 3.191351367275761    MA= 73.41249499936629   ADIST= 3.261089940738835
   PER= 5.70125            N= .172878955           ANGMOM= .0307231
   DAN= 3.12219            DDN= 3.26046            L= 282.8913561
   B= -2.6530591           MOID= 2.10517001        TP= 2007-Jan-29.3532112367
 
Asteroid physical parameters (km, seconds, rotational period in hours):
   GM= n.a.                RAD= 95.49              ROTPER= 8.3531
   H= 7.3                  G= .150                 B-V= .665
                           ALBEDO= .061            STYP= B
 
ASTEROID comments: 
1: soln ref.= JPL#95, OCC=0
2: source=ORB
*******************************************************************************
 
 
*******************************************************************************
Ephemeris / WWW_USER Mon Jun 22 09:25:47 2020 Pasadena, USA      / Horizons
*******************************************************************************
Target body name: 702 Alauda (A910 OA)            {source: JPL#95}
Center body name: Solar System Barycenter (0)     {source: DE431}
Center-site name: BODY CENTER
*******************************************************************************
Start time      : A.D. 1969-Jun-28 00:00:00.0000 TDB
Stop  time      : A.D. 2071-May-04 00:00:00.0000 TDB
Step-size       : 7200 minutes
*******************************************************************************
Center geodetic : 0.00000000,0.00000000,0.0000000 {E-lon(deg),Lat(deg),Alt(km)}
Center cylindric: 0.00000000,0.00000000,0.0000000 {E-lon(deg),Dxy(km),Dz(km)}
Center radii    : (undefined)                                                  
Small perturbers: Yes                             {source: SB431-N16}
Output units    : AU-D
Output type     : GEOMETRIC cartesian states
Output format   : 2 (position and velocity)
Reference frame : Ecliptic of J2000.0
*******************************************************************************
Initial IAU76/J2000 heliocentric ecliptic osculating elements (au, days, deg.):
  EPOCH=  2454554.5 ! 2008-Mar-29.00 (TDB)         Residual RMS= .2525         
   EC= .02185236454317644  QR= 3.121612793812686   TP= 2454129.8532112367      
   OM= 289.9677299015053   W=  352.4449943450499   IN= 20.61336819702069       
  Equivalent ICRF heliocentric equatorial cartesian coordinates (au, au/d):
   X= 2.994001128843936E+00  Y=-5.611381710407628E-01  Z= 8.877443027391527E-01
  VX= 2.737433209118617E-04 VY= 8.269989155905376E-03 VZ= 5.033545894720973E-03
Asteroid physical parameters (km, seconds, rotational period in hours):        
   GM= n.a.                RAD= 95.49              ROTPER= 8.3531              
   H= 7.3                  G= .150                 B-V= .665                   
                           ALBEDO= .061            STYP= B                     
*******************************************************************************
            JDTDB,            Calendar Date (TDB),        delta-T,                      X,                      Y,                      Z,                     VX,                     VY,                     VZ,
******************************************************************************************************************************************************************************************************************
$$SOE
2465600.500000000, A.D. 2038-Jun-26 00:00:00.0000,      69.184256, -7.435845284784804E-01,  3.131330687039206E+00,  1.283496248167247E-01, -8.713952702773836E-03, -1.911904304469052E-03, -3.325518892291737E-03,
2465605.500000000, A.D. 2038-Jul-01 00:00:00.0000,      69.184120, -7.870708823180856E-01,  3.121426702987752E+00,  1.117085021451537E-01, -8.680270865772435E-03, -2.049613765015590E-03, -3.330807885405010E-03,
2465610.500000000, A.D. 2038-Jul-06 00:00:00.0000,      69.183984, -8.303840639208122E-01,  3.110835329346548E+00,  9.504276967948257E-02, -8.644685112154974E-03, -2.186855254503040E-03, -3.335362653364217E-03,
2465615.500000000, A.D. 2038-Jul-11 00:00:00.0000,      69.183846, -8.735145735806741E-01,  3.099558979171626E+00,  7.835610077066602E-02, -8.607203455728456E-03, -2.323599510256430E-03, -3.339182330769310E-03,
2465620.500000000, A.D. 2038-Jul-16 00:00:00.0000,      69.183708, -9.164529526039520E-01,  3.087600211563886E+00,  6.165217272636688E-02, -8.567834287330480E-03, -2.459817377843895E-03, -3.342266200374228E-03,
2465625.500000000, A.D. 2038-Jul-21 00:00:00.0000,      69.183572, -9.591897851904018E-01,  3.074961731115318E+00,  4.493466606961469E-02, -8.526586373247753E-03, -2.595479816093393E-03, -3.344613693318128E-03,
2465630.500000000, A.D. 2038-Jul-26 00:00:00.0000,      69.183441, -1.001715700306470E+00,  3.061646387330290E+00,  2.820726379629180E-02, -8.483468853593966E-03, -2.730557902043791E-03, -3.346224389360327E-03,
2465635.500000000, A.D. 2038-Jul-31 00:00:00.0000,      69.183314, -1.044021373550213E+00,  3.047657174022257E+00,  1.147365063142498E-02, -8.438491240607100E-03, -2.865022835833262E-03, -3.347098017125177E-03,
2465640.500000000, A.D. 2038-Aug-05 00:00:00.0000,      69.183193, -1.086097529007419E+00,  3.032997228686115E+00, -5.262487715775511E-03, -8.391663416824327E-03, -2.998845945555964E-03, -3.347234454359204E-03,
2465645.500000000, A.D. 2038-Aug-10 00:00:00.0000,      69.183077, -1.127934941098195E+00,  3.017669831846235E+00, -2.199746529819380E-02, -8.342995633089286E-03, -3.131998692149488E-03, -3.346633728197850E-03,
2465650.500000000, A.D. 2038-Aug-15 00:00:00.0000,      69.182965, -1.169524436413138E+00,  3.001678406379799E+00, -3.872759667841369E-02, -8.292498506376986E-03, -3.264452674402109E-03, -3.345296015429156E-03,
2465655.500000000, A.D. 2038-Aug-20 00:00:00.0000,      69.182861, -1.210856895538230E+00,  2.985026516814608E+00, -5.544919767760213E-02, -8.240183017471663E-03, -3.396179634167991E-03, -3.343221642733782E-03,
2465660.500000000, A.D. 2038-Aug-25 00:00:00.0000,      69.182766, -1.251923254867987E+00,  2.967717868600206E+00, -7.215858612547262E-02, -8.186060508619312E-03, -3.527151461820488E-03, -3.340411086878521E-03,
2465665.500000000, A.D. 2038-Aug-30 00:00:00.0000,      69.182682, -1.292714508407160E+00,  2.949756307351403E+00, -8.885208261110498E-02, -8.130142681315480E-03, -3.657340201792787E-03, -3.336864974865626E-03,
2465670.500000000, A.D. 2038-Sep-04 00:00:00.0000,      69.182607, -1.333221709561764E+00,  2.931145818064406E+00, -1.055260112344538E-01, -8.072441594216277E-03, -3.786718057980433E-03, -3.332584084063793E-03,
2465675.500000000, A.D. 2038-Sep-09 00:00:00.0000,      69.182541, -1.373435972919355E+00,  2.911890524306172E+00, -1.221767003584586E-01, -8.012969660886372E-03, -3.915257399110692E-03, -3.327569342306686E-03,
2465680.500000000, A.D. 2038-Sep-14 00:00:00.0000,      69.182484, -1.413348476017663E+00,  2.891994687375983E+00, -1.388004833613827E-01, -7.951739647464645E-03, -4.042930764513665E-03, -3.321821827878843E-03,
2465685.500000000, A.D. 2038-Sep-19 00:00:00.0000,      69.182438, -1.452950461102435E+00,  2.871462705437776E+00, -1.553936993888726E-01, -7.888764670738574E-03, -4.169710869928727E-03, -3.315342769437621E-03,
2465690.500000000, A.D. 2038-Sep-24 00:00:00.0000,      69.182405, -1.492233236876610E+00,  2.850299112624691E+00, -1.719526941057246E-01, -7.824058196527345E-03, -4.295570612762133E-03, -3.308133545988518E-03,
2465695.500000000, A.D. 2038-Sep-29 00:00:00.0000,      69.182385, -1.531188180241249E+00,  2.828508578118608E+00, -1.884738204477031E-01, -7.757634037951884E-03, -4.420483076896293E-03, -3.300195686921001E-03,
2465700.500000000, A.D. 2038-Oct-04 00:00:00.0000,      69.182377, -1.569806738027210E+00,  2.806095905206021E+00, -2.049534393735774E-01, -7.689506353465489E-03, -4.544421537385141E-03, -3.291530872054447E-03,
2465705.500000000, A.D. 2038-Oct-09 00:00:00.0000,      69.182379, -1.608080428716510E+00,  2.783066030310394E+00, -2.213879206173519E-01, -7.619689644707499E-03, -4.667359465180805E-03, -3.282140931665764E-03,
2465710.500000000, A.D. 2038-Oct-14 00:00:00.0000,      69.182393, -1.646000844152629E+00,  2.759424022000730E+00, -2.377736434405639E-01, -7.548198754241575E-03, -4.789270531917033E-03, -3.272027846488326E-03,
2465715.500000000, A.D. 2038-Oct-19 00:00:00.0000,      69.182418, -1.683559651239313E+00,  2.735175079976094E+00, -2.541069973844918E-01, -7.475048863214108E-03, -4.910128614743874E-03, -3.261193747676585E-03,
2465720.500000000, A.D. 2038-Oct-24 00:00:00.0000,      69.182457, -1.720748593627505E+00,  2.710324534025864E+00, -2.703843830220948E-01, -7.400255488952212E-03, -5.029907801203652E-03, -3.249640916731774E-03,
2465725.500000000, A.D. 2038-Oct-29 00:00:00.0000,      69.182509, -1.757559493390136E+00,  2.684877842965502E+00, -2.866022127094682E-01, -7.323834482511704E-03, -5.148582394137562E-03, -3.237371785384597E-03,
2465730.500000000, A.D. 2038-Nov-03 00:00:00.0000,      69.182571, -1.793984252684543E+00,  2.658840593547759E+00, -3.027569113366049E-01, -7.245802026180180E-03, -5.266126916614993E-03, -3.224388935431228E-03,
2465735.500000000, A.D. 2038-Nov-08 00:00:00.0000,      69.182643, -1.830014855402297E+00,  2.632218499349159E+00, -3.188449170772039E-01, -7.166174630934787E-03, -5.382516116879472E-03, -3.210695098518114E-03,
